{"type": "FeatureCollection", "features": [ {"type": "Feature", "properties": {"norad_id": 66442, "name": "STARLINK-34724", "group": "last-30-days", "lat": -34.56431792535364, "lon": 12.04588377114369, "alt_km": 441.681138936523, "timestamp": "2025-12-10T14:53:35.945615+00:00", "meta": {"OBJECT_NAME": "STARLINK-34724", "OBJECT_ID": "2025-259W", "EPOCH": "2025-12-10T06:00:02.000160", "MEAN_MOTION": 15.43767618, "ECCENTRICITY": 0.00014276, "INCLINATION": 43.0009, "RA_OF_ASC_NODE": 61.8602, "ARG_OF_PERICENTER": 282.2031, "MEAN_ANOMALY": 120.8762, "EPHEMERIS_TYPE": 0, "CLASSIFICATION_TYPE": "U", "NORAD_CAT_ID": 66442, "ELEMENT_SET_NO": 999, "REV_AT_EPOCH": 588, "BSTAR": -0.0473511, "MEAN_MOTION_DOT": -0.01959146, "MEAN_MOTION_DDOT": 0}, "tle": {"line1": "1 66442U 25259W   25344.25002315 -.01959146  00000+0 -47351-1 0  9998", "line2": "2 66442  43.0009  61.8602 0001427 282.2031 120.8762 15.43767618  5880"}}, "geometry": {"type": "Point", "coordinates": [12.04588377114369, -34.56431792535364]}}, {"type": "Feature", "properties": {"norad_id": 66443, "name": "STARLINK-35219", "group": "last-30-days", "lat": -29.43853421921423, "lon": 22.418798458442453, "alt_km": 437.94600174626066, "timestamp": "2025-12-10T14:53:35.945624+00:00", "meta": {"OBJECT_NAME": "STARLINK-35219", "OBJECT_ID": "2025-259X", "EPOCH": "2025-12-10T06:00:02.000160", "MEAN_MOTION": 15.45119562, "ECCENTRICITY": 0.00013166, "INCLINATION": 43.0003, "RA_OF_ASC_NODE": 61.8398, "ARG_OF_PERICENTER": 268.8685, "MEAN_ANOMALY": 142.6491, "EPHEMERIS_TYPE": 0, "CLASSIFICATION_TYPE": "U", "NORAD_CAT_ID": 66443, "ELEMENT_SET_NO": 999, "REV_AT_EPOCH": 577, "BSTAR": -0.047414102, "MEAN_MOTION_DOT": -0.02044447, "MEAN_MOTION_DDOT": 0}, "tle": {"line1": "1 66443U 25259X   25344.25002315 -.02044447  00000+0 -47414-1 0  9999", "line2": "2 66443  43.0003  61.8398 0001316 268.8685 142.6491 15.45119562  5779"}}, "geometry": {"type": "Point", "coordinates": [22.418798458442453, -29.43853421921423]}}, {"type": "Feature", "properties": {"norad_id": 66444, "name": "STARLINK-35360", "group": "last-30-days", "lat": -13.026370842924438, "lon": 45.2477707505307, "alt_km": 414.5261115664953, "timestamp": "2025-12-10T14:53:35.945634+00:00", "meta": {"OBJECT_NAME": "STARLINK-35360", "OBJECT_ID": "2025-259Y", "EPOCH": "2025-12-09T14:14:38.914944", "MEAN_MOTION": 15.50671448, "ECCENTRICITY": 0.0003008, "INCLINATION": 43.0004, "RA_OF_ASC_NODE": 65.6336, "ARG_OF_PERICENTER": 269.9974, "MEAN_ANOMALY": 90.0542, "EPHEMERIS_TYPE": 0, "CLASSIFICATION_TYPE": "U", "NORAD_CAT_ID": 66444, "ELEMENT_SET_NO": 999, "REV_AT_EPOCH": 568, "BSTAR": 0.0018101, "MEAN_MOTION_DOT": 0.00107686, "MEAN_MOTION_DDOT": 0}, "tle": {"line1": "1 66444U 25259Y   25343.59350596  .00107686  00000+0  18101-2 0  9996", "line2": "2 66444  43.0004  65.6336 0003008 269.9974  90.0542 15.50671448  5683"}}, "geometry": {"type": "Point", "coordinates": [45.2477707505307, -13.026370842924438]}}, {"type": "Feature", "properties": {"norad_id": 66445, "name": "STARLINK-34698", "group": "last-30-days", "lat": -24.423506040567002, "lon": 30.506704104925145, "alt_km": 433.7602747769488, "timestamp": "2025-12-10T14:53:35.945643+00:00", "meta": {"OBJECT_NAME": "STARLINK-34698", "OBJECT_ID": "2025-259Z", "EPOCH": "2025-12-10T06:00:02.000160", "MEAN_MOTION": 15.46449762, "ECCENTRICITY": 0.0001344, "INCLINATION": 43.0011, "RA_OF_ASC_NODE": 61.822, "ARG_OF_PERICENTER": 269.9261, "MEAN_ANOMALY": 148.6112, "EPHEMERIS_TYPE": 0, "CLASSIFICATION_TYPE": "U", "NORAD_CAT_ID": 66445, "ELEMENT_SET_NO": 999, "REV_AT_EPOCH": 577, "BSTAR": -0.04517514, "MEAN_MOTION_DOT": -0.02040488, "MEAN_MOTION_DDOT": 0}, "tle": {"line1": "1 66445U 25259Z   25344.25002315 -.02040488  00000+0 -45175-1 0  9994", "line2": "2 66445  43.0011  61.8220 0001344 269.9261 148.6112 15.46449762  5772"}}, "geometry": {"type": "Point", "coordinates": [30.506704104925145, -24.423506040567002]}}, {"type": "Feature", "properties": {"norad_id": 66446, "name": "STARLINK-34986", "group": "last-30-days", "lat": -14.295218750089873, "lon": 43.757615103989814, "alt_km": 414.5361245795748, "timestamp": "2025-12-10T14:53:35.945652+00:00", "meta": {"OBJECT_NAME": "STARLINK-34986", "OBJECT_ID": "2025-259AA", "EPOCH": "2025-12-09T14:15:08.032608", "MEAN_MOTION": 15.5062385, "ECCENTRICITY": 0.0002711, "INCLINATION": 42.9993, "RA_OF_ASC_NODE": 65.636, "ARG_OF_PERICENTER": 273.1662, "MEAN_ANOMALY": 86.8888, "EPHEMERIS_TYPE": 0, "CLASSIFICATION_TYPE": "U", "NORAD_CAT_ID": 66446, "ELEMENT_SET_NO": 999, "REV_AT_EPOCH": 568, "BSTAR": 0.0023987, "MEAN_MOTION_DOT": 0.00143221, "MEAN_MOTION_DDOT": 0}, "tle": {"line1": "1 66446U 25259AA  25343.59384297  .00143221  00000+0  23987-2 0  9996", "line2": "2 66446  42.9993  65.6360 0002711 273.1662  86.8888 15.50623850  5688"}}, "geometry": {"type": "Point", "coordinates": [43.757615103989814, -14.295218750089873]}}, {"type": "Feature", "properties": {"norad_id": 66447, "name": "STARLINK-34851", "group": "last-30-days", "lat": -12.16809302369129, "lon": 46.243506577213395, "alt_km": 415.28215931282193, "timestamp": "2025-12-10T14:53:35.945661+00:00", "meta": {"OBJECT_NAME": "STARLINK-34851", "OBJECT_ID": "2025-259AB", "EPOCH": "2025-12-10T05:41:44.121408", "MEAN_MOTION": 15.50651186, "ECCENTRICITY": 0.00013213, "INCLINATION": 42.9984, "RA_OF_ASC_NODE": 61.8661, "ARG_OF_PERICENTER": 284.8329, "MEAN_ANOMALY": 75.2384, "EPHEMERIS_TYPE": 0, "CLASSIFICATION_TYPE": "U", "NORAD_CAT_ID": 66447, "ELEMENT_SET_NO": 999, "REV_AT_EPOCH": 567, "BSTAR": 0.0017574292, "MEAN_MOTION_DOT": 0.00104412, "MEAN_MOTION_DDOT": 0}, "tle": {"line1": "1 66447U 25259AB  25344.23731622  .00104412  00000+0  17574-2 0  9991", "line2": "2 66447  42.9984  61.8661 0001321 284.8329  75.2384 15.50651186  5671"}}, "geometry": {"type": "Point", "coordinates": [46.243506577213395, -12.16809302369129]}}, {"type": "Feature", "properties": {"norad_id": 66448, "name": "STARLINK-35355", "group": "last-30-days", "lat": -10.85138091370882, "lon": 47.74710988063969, "alt_km": 415.1425377164496, "timestamp": "2025-12-10T14:53:35.945670+00:00", "meta": {"OBJECT_NAME": "STARLINK-35355", "OBJECT_ID": "2025-259AC", "EPOCH": "2025-12-10T05:41:14.394624", "MEAN_MOTION": 15.50671091, "ECCENTRICITY": 0.00021654, "INCLINATION": 43.0012, "RA_OF_ASC_NODE": 61.8623, "ARG_OF_PERICENTER": 264.5818, "MEAN_ANOMALY": 95.4795, "EPHEMERIS_TYPE": 0, "CLASSIFICATION_TYPE": "U", "NORAD_CAT_ID": 66448, "ELEMENT_SET_NO": 999, "REV_AT_EPOCH": 578, "BSTAR": 0.0026820757, "MEAN_MOTION_DOT": 0.00160806, "MEAN_MOTION_DDOT": 0}, "tle": {"line1": "1 66448U 25259AC  25344.23697216  .00160806  00000+0  26821-2 0  9996", "line2": "2 66448  43.0012  61.8623 0002165 264.5818  95.4795 15.50671091  5788"}}, "geometry": {"type": "Point", "coordinates": [47.74710988063969, -10.85138091370882]}}, {"type": "Feature", "properties": {"norad_id": 66449, "name": "STARLINK-34720", "group": "last-30-days", "lat": -9.448705004360857, "lon": 49.32161448964495, "alt_km": 414.97572918779315, "timestamp": "2025-12-10T14:53:35.945679+00:00", "meta": {"OBJECT_NAME": "STARLINK-34720", "OBJECT_ID": "2025-259AD", "EPOCH": "2025-12-09T14:13:10.265952", "MEAN_MOTION": 15.5058504, "ECCENTRICITY": 0.0001466, "INCLINATION": 42.9996, "RA_OF_ASC_NODE": 65.6255, "ARG_OF_PERICENTER": 272.035, "MEAN_ANOMALY": 88.0342, "EPHEMERIS_TYPE": 0, "CLASSIFICATION_TYPE": "U", "NORAD_CAT_ID": 66449, "ELEMENT_SET_NO": 999, "REV_AT_EPOCH": 557, "BSTAR": 0.0016251, "MEAN_MOTION_DOT": 0.00096197, "MEAN_MOTION_DDOT": 0}, "tle": {"line1": "1 66449U 25259AD  25343.59247993  .00096197  00000+0  16251-2 0  9995", "line2": "2 66449  42.9996  65.6255 0001466 272.0350  88.0342 15.50585040  5570"}}, "geometry": {"type": "Point", "coordinates": [49.32161448964495, -9.448705004360857]}}, {"type": "Feature", "properties": {"norad_id": 66450, "name": "STARLINK-35334", "group": "last-30-days", "lat": -8.310120546066194, "lon": 50.58717549383644, "alt_km": 415.26805896694805, "timestamp": "2025-12-10T14:53:35.945688+00:00", "meta": {"OBJECT_NAME": "STARLINK-35334", "OBJECT_ID": "2025-259AE", "EPOCH": "2025-12-10T05:40:15.198528", "MEAN_MOTION": 15.50658961, "ECCENTRICITY": 2.236e-05, "INCLINATION": 42.9962, "RA_OF_ASC_NODE": 61.8553, "ARG_OF_PERICENTER": 280.5315, "MEAN_ANOMALY": 79.5519, "EPHEMERIS_TYPE": 0, "CLASSIFICATION_TYPE": "U", "NORAD_CAT_ID": 66450, "ELEMENT_SET_NO": 999, "REV_AT_EPOCH": 578, "BSTAR": 0.0019415774, "MEAN_MOTION_DOT": 0.00115588, "MEAN_MOTION_DDOT": 0}, "tle": {"line1": "1 66450U 25259AE  25344.23628702  .00115588  00000+0  19416-2 0  9992", "line2": "2 66450  42.9962  61.8553 0000223 280.5315  79.5519 15.50658961  5786"}}, "geometry": {"type": "Point", "coordinates": [50.58717549383644, -8.310120546066194]}}, {"type": "Feature", "properties": {"norad_id": 66454, "name": "VIASAT-3 F2", "group": "last-30-days", "lat": -5.18185545984852, "lon": -138.9973718610187, "alt_km": 18099.946018148083, "timestamp": "2025-12-10T14:53:35.945701+00:00", "meta": {"OBJECT_NAME": "VIASAT-3 F2", "OBJECT_ID": "2025-261A", "EPOCH": "2025-12-08T12:11:15.383616", "MEAN_MOTION": 2.19142646, "ECCENTRICITY": 0.22792154, "INCLINATION": 5.457, "RA_OF_ASC_NODE": 292.6501, "ARG_OF_PERICENTER": 190.5469, "MEAN_ANOMALY": 204.5187, "EPHEMERIS_TYPE": 0, "CLASSIFICATION_TYPE": "U", "NORAD_CAT_ID": 66454, "ELEMENT_SET_NO": 999, "REV_AT_EPOCH": 55, "BSTAR": 0, "MEAN_MOTION_DOT": -8.1e-07, "MEAN_MOTION_DDOT": 0}, "tle": {"line1": "1 66454U 25261A   25342.50781694 -.00000081  00000+0  00000+0 0  9995", "line2": "2 66454   5.4570 292.6501 2279215 190.5469 204.5187  2.19142646   557"}}, "geometry": {"type": "Point", "coordinates": [-138.9973718610187, -5.18185545984852]}}]}